HST                     
1 20580U 90037B   26189.72127744  .00004866  00000+0  15029-3 0  9997
2 20580  28.4736 293.3726 0001994  41.8079 318.2669 15.31013397791871
POLAR                   
1 23802U 96013A   26188.83341926  .00000206  00000+0  00000+0 0  9991
2 23802  79.8803 226.8071 6491222 208.3689  91.2224  1.29846096145128
SWAS                    
1 25560U 98071A   26190.01343515  .00001623  00000+0  10690-3 0  9993
2 25560  69.8940 171.2275 0008179 237.0602 122.9777 15.09724094500568
CXO                     
1 25867U 99040B   26193.17780626  .00000693  00000+0  00000+0 0  9994
2 25867  56.5436 115.9395 7801621 310.0685   0.3422  0.37804200 17418
XMM-NEWTON              
1 25989U 99066A   26191.28725898  .00000104  00000+0  00000+0 0  9994
2 25989  64.3678 282.6911 4669316  64.5120   0.0817  0.50123471 23117
TERRA                   
1 25994U 99068A   26190.27644859  .00000261  00000+0  62003-4 0  9997
2 25994  97.9444 238.9456 0003146 134.5499 298.5628 14.61120751412830
CLUSTER II-FM7 (SAMBA)  
1 26410U 00041A   26192.68021872  .00012833  00000+0  00000+0 0  9997
2 26410 149.8437  55.3938 9082312 272.8334 359.6328  0.44896530 20421
CLUSTER II-FM8 (TANGO)  
1 26464U 00045B   26188.69922144  .00008170  00000+0  00000+0 0  9997
2 26464 150.0768  55.7803 9084327 273.0277   2.3481  0.44419476 20403
ODIN                    
1 26702U 01007A   26190.06702813  .00259510  00000+0  10280-2 0  9994
2 26702  97.3749 232.5556 0005044 142.3922 217.7703 15.86075988392853
TIMED                   
1 26998U 01055B   26189.95269642  .00000764  00000+0  72913-4 0  9996
2 26998  74.0661 191.1922 0002090 307.0120  53.0872 14.95335991334070
CORIOLIS                
1 27640U 03001A   26190.53456389  .00000060  00000+0  48552-4 0  9997
2 27640  98.7131 197.0783 0014680 144.6326 215.5827 14.19950705217393
SORCE                   
1 27651U 03004A   26190.18811890  .00001988  00000+0  15248-3 0  9990
2 27651  39.9897 136.1414 0018235 213.8295 146.1336 15.03822523275219
MOST                    
1 27843U 03031D   26190.73822203  .00000036  00000+0  36357-4 0  9992
2 27843  98.7050 198.1496 0009748 180.6946 179.4219 14.21326963193918
SCISAT 1                
1 27858U 03036A   26190.78034801  .00000444  00000+0  61285-4 0  9998
2 27858  73.9302 126.4534 0007649 195.5821 164.5121 14.81474956234792
SWIFT                   
1 28485U 04047A   26190.75082697  .00054825  00000+0  41301-3 0  9999
2 28485  20.5534  10.5603 0001369 310.0565  49.9761 15.70696899190413
HINODE (SOLAR-B)        
1 29479U 06041A   26190.53241804  .00000448  00000+0  85354-4 0  9991
2 29479  98.0547 206.3555 0016593 213.0153 147.0018 14.68653645 58159
SHIJIAN-6 02A (SJ-6 02A)
1 29505U 06046A   26190.84719082  .00003343  00000+0  17169-3 0  9993
2 29505  97.6356 232.0853 0004553  74.7803 285.3933 15.17206342 75701
SHIJIAN-6 02B (SJ-6 02B)
1 29506U 06046B   26190.80596392  .00000481  00000+0  41968-4 0  9992
2 29506  97.7155 219.7246 0014060 354.3621   5.7443 15.01430206 74134
FGRST (GLAST)           
1 33053U 08029A   26190.81782028  .00002531  00000+0  87861-4 0  9991
2 33053  25.5828  47.3312 0007765 232.4955 127.4878 15.24057303999296
SDO                     
1 36395U 10005A   26190.29623794 -.00000089  00000+0  00000+0 0  9998
2 36395  34.6945  86.0076 0001880  60.2380 145.3020  1.00269380 60282
CRYOSAT 2               
1 36508U 10013A   26190.82516412  .00000122  00000+0  29521-4 0  9991
2 36508  92.0359 282.8050 0002317  98.0081 262.1389 14.51897090861365
X-SAT                   
1 37389U 11015C   26190.83160147  .00000062  00000+0  43848-4 0  9994
2 37389  98.3524 166.7773 0012737 278.1858  81.7878 14.25213010790902
GCOM-W1 (SHIZUKU)       
1 38337U 12025A   26190.75664850  .00000281  00000+0  72368-4 0  9993
2 38337  98.2024 130.9723 0001419  71.6571 320.9019 14.57087353752324
NUSTAR                  
1 38358U 12031A   26190.83335647  .00002798  00000+0  11926-3 0  9998
2 38358   6.0263 224.2598 0006449  85.5309 234.9447 15.09018284  1306
NEOSSAT                 
1 39089U 13009D   26189.95166463  .00000108  00000+0  51904-4 0  9999
2 39089  98.4187   9.4677 0011050 175.3376 184.7915 14.35834076699864
BRITE-AUSTRIA           
1 39091U 13009F   26189.93945591  .00000114  00000+0  53493-4 0  9999
2 39091  98.4005   8.8378 0010385 168.5831 191.5593 14.36550763700171
IRIS                    
1 39197U 13033A   26189.51171484  .00000796  00000+0  97230-4 0  9992
2 39197  97.9322  28.7216 0023022 248.1255 111.7512 14.85927927703546
HISAKI (SPRINT-A)       
1 39253U 13049A   26190.22323717  .00000091  00000+0  32668-4 0  9992
2 39253  29.7198 107.9742 0136925 195.5049 164.1300 13.55546391634414
CASSIOPE                
1 39265U 13055A   26190.78022007  .00029284 -49914-6  31455-3 0  9993
2 39265  80.9140  39.2405 0284180 346.2510  13.1090 15.27165942671118
STSAT-3                 
1 39422U 13066G   26190.81770515  .00001106  00000+0  86920-4 0  9994
2 39422  97.6199 160.3412 0008968 327.8970  32.1708 15.02869540687605
SWARM B                 
1 39451U 13067A   26190.78440513  .00002445  00000+0  86398-4 0  9991
2 39451  87.7453 335.4516 0002514  81.4500 278.7034 15.28694821686697
